GLOBALSTAR M075         
1 37192U 10054E   25142.57697155 -.00000087  00000+0  93316-4 0  9992
2 37192  51.9949 259.5142 0000596 121.0377 253.3005 12.62265046672614
GLOBALSTAR M073         
1 37193U 10054F   25143.55425862 -.00000079  00000+0  13965-3 0  9998
2 37193  52.0032 170.3395 0000085 248.6744 248.0320 12.62271740674720
GLOBALSTAR M083         
1 37739U 11033A   25143.86200133 -.00000115  00000+0 -60165-4 0  9995
2 37739  51.9845 118.1654 0000206  77.4353 318.3620 12.62263591644145
GLOBALSTAR M088         
1 37740U 11033B   25143.39023374 -.00000097  00000+0  36340-4 0  9991
2 37740  52.0069  25.1192 0000847  74.6546  97.4349 12.62245128639261
GLOBALSTAR M091         
1 37741U 11033C   25143.61166750 -.00000090  00000+0  77603-4 0  9993
2 37741  52.0012 347.9519 0000964 108.1282 290.0864 12.62267999640083
GLOBALSTAR M085         
1 37742U 11033D   25143.86091846 -.00000098  00000+0  30293-4 0  9996
2 37742  51.9873 298.2523 0000897 124.8391  26.9226 12.62268527641112
GLOBALSTAR M081         
1 37743U 11033E   25143.80787984 -.00000105  00000+0 -86444-5 0  9996
2 37743  51.9966 301.1872 0000710 127.2410  22.4708 12.62263955641149
GLOBALSTAR M089         
1 37744U 11033F   25143.57950095 -.00000103  00000+0  67022-5 0  9994
2 37744  51.9930 256.1133 0000403 109.0408 263.7875 12.62270050641839
